[{"OBJECT_NAME":"SDA_1665","OBJECT_ID":"2025-230B","EPOCH":"2026-03-09T22:47:20.541984","MEAN_MOTION":13.85178901,"ECCENTRICITY":0.00037609,"INCLINATION":81.3004,"RA_OF_ASC_NODE":303.6398,"ARG_OF_PERICENTER":117.7881,"MEAN_ANOMALY":242.3658,"EPHEMERIS_TYPE":0,"CLASSIFICATION_TYPE":"U","NORAD_CAT_ID":65975,"ELEMENT_SET_NO":999,"REV_AT_EPOCH":2008,"BSTAR":-0.026076654,"MEAN_MOTION_DOT":-0.00029429,"MEAN_MOTION_DDOT":0},{"OBJECT_NAME":"FENGYUN 1C DEB","OBJECT_ID":"1999-025EU","EPOCH":"2026-03-09T17:15:27.591840","MEAN_MOTION":14.00190234,"ECCENTRICITY":0.01072991,"INCLINATION":98.1235,"RA_OF_ASC_NODE":350.6866,"ARG_OF_PERICENTER":42.2622,"MEAN_ANOMALY":18.4486,"EPHEMERIS_TYPE":0,"CLASSIFICATION_TYPE":"U","NORAD_CAT_ID":29850,"ELEMENT_SET_NO":999,"REV_AT_EPOCH":97237,"BSTAR":0.0018971052,"MEAN_MOTION_DOT":2.907e-5,"MEAN_MOTION_DDOT":0}]
